KUIPER-00079            
1 64826U 25151L   26010.95451158  .00008817  00000+0  11833-2 0  9998
2 64826  51.8987 195.8722 0002541  88.8044 271.3210 14.79959288 27955
KUIPER-00080            
1 64827U 25151M   26010.78572347  .00004344  00000+0  59932-3 0  9998
2 64827  51.8973 196.6231 0005675  71.1419 289.0159 14.79875265 26732
KUIPER-00082            
1 64828U 25151N   26010.96789181 -.00006334  00000+0 -80247-3 0  9991
2 64828  51.8998 183.3373 0001742 121.5651 238.5482 14.79938719 26933
KUIPER-00083            
1 64829U 25151P   26010.68979880  .00004400  00000+0  60646-3 0  9999
2 64829  51.9007 192.0620 0003724  94.3118 265.8270 14.79893983 27971
KUIPER-00084            
1 64830U 25151Q   26010.81398358  .00002975  00000+0  41875-3 0  9999
2 64830  51.8999 201.4967 0009010  32.8637 327.2884 14.79971546 26669
KUIPER-00085            
1 64831U 25151R   26010.73157604  .00002970  00000+0  41845-3 0  9990
2 64831  51.9020 184.4014 0007931  74.8130 285.3709 14.79939481 26890
KUIPER-00086            
1 64832U 25151S   26010.78835392  .00002961  00000+0  41711-3 0  9995
2 64832  51.9002 194.1328 0011303  52.3608 307.8379 14.79940417 26766
KUIPER-00087            
1 64833U 25151T   26010.73966509  .00003274  00000+0  45793-3 0  9998
2 64833  51.8993 176.8366 0000633  94.3341 265.7694 14.79968456 26998
